{
 "type": "FeatureCollection",
 "features": [
  {
   "type": "Feature",
   "geometry": {
    "type": "Polygon",
    "coordinates": [
     [
      [
       78.6,
       10.4
      ],
      [
       78.9,
       10.4
      ],
      [
       79.05,
       9.95
      ],
      [
       79.1,
       9.6
      ],
      [
       79.25,
       9.45
      ],
      [
       79.45,
       9.35
      ],
      [
       79.5,
       9.15
      ],
      [
       79.6,
       9.05
      ],
      [
       79.75,
       9.1
      ],
      [
       79.85,
       9.3
      ],
      [
       80.3,
       9.6
      ],
      [
       80.5,
       10.0
      ],
      [
       80.5,
       10.4
      ],
      [
       78.6,
       10.4
      ]
     ]
    ]
   },
   "properties": {
    "kind": "land",
    "authority": "reference",
    "hard_constraint": true,
    "source_id": "orca-demo",
    "name": "India (coarse demo mask)",
    "notes": "SYNTHETIC coarse coastline for demo routing — NOT survey-grade. Replace with Natural Earth/OSM land layer in ops mode."
   }
  },
  {
   "type": "Feature",
   "geometry": {
    "type": "Polygon",
    "coordinates": [
     [
      [
       79.6,
       9.05
      ],
      [
       80.0,
       9.05
      ],
      [
       80.3,
       9.2
      ],
      [
       80.5,
       9.5
      ],
      [
       80.5,
       8.3
      ],
      [
       79.9,
       8.3
      ],
      [
       79.75,
       8.6
      ],
      [
       79.6,
       8.8
      ],
      [
       79.6,
       9.05
      ]
     ]
    ]
   },
   "properties": {
    "kind": "land",
    "authority": "reference",
    "hard_constraint": true,
    "source_id": "orca-demo",
    "name": "Sri Lanka (coarse demo mask)",
    "notes": "SYNTHETIC coarse coastline for demo routing — NOT survey-grade. Replace with Natural Earth/OSM land layer in ops mode."
   }
  }
 ]
}