{
 "type": "FeatureCollection",
 "features": [
  {
   "type": "Feature",
   "properties": {
    "id": "mpa-gulf-of-mannar-np",
    "name": "Gulf of Mannar Marine National Park (real boundary)",
    "kind": "mpa",
    "authority": "reference",
    "source_id": "osm-relation-415570",
    "hard_constraint": true,
    "notes": "Boundary as mapped in OpenStreetMap (relation 415570, protect_class=2, boundary=national_park), ODbL 1.0, retrieved 2026-08-30. REFERENCE ONLY \u2014 the legally definitive limit is the official notification by the Tamil Nadu Forest Department / MoEFCC. Replaces an earlier hand-drawn approximation hexagon.",
    "retrieved": "2026-08-30",
    "license": "ODbL 1.0 (c) OpenStreetMap contributors"
   },
   "geometry": {
    "type": "MultiPolygon",
    "coordinates": [
     [
      [
       [
        78.2625639,
        8.9748958
       ],
       [
        78.308336,
        8.9250083
       ],
       [
        78.2416633,
        8.8166692
       ],
       [
        78.1916786,
        8.8166547
       ],
       [
        78.2240713,
        8.9448494
       ],
       [
        78.2625639,
        8.9748958
       ]
      ]
     ],
     [
      [
       [
        78.4715998,
        9.0573134
       ],
       [
        78.4631859,
        9.1061664
       ],
       [
        78.5814664,
        9.1241756
       ],
       [
        78.6055537,
        9.0898021
       ],
       [
        78.4715998,
        9.0573134
       ]
      ]
     ],
     [
      [
       [
        78.8945385,
        9.215305
       ],
       [
        78.9987569,
        9.2200714
       ],
       [
        78.9972102,
        9.1740711
       ],
       [
        78.8835522,
        9.1665012
       ],
       [
        78.8653561,
        9.155655
       ],
       [
        78.7589257,
        9.1170131
       ],
       [
        78.6850427,
        9.1160044
       ],
       [
        78.6782944,
        9.1637331
       ],
       [
        78.8608929,
        9.1953098
       ],
       [
        78.8945385,
        9.215305
       ]
      ]
     ],
     [
      [
       [
        79.1746899,
        9.2190328
       ],
       [
        79.1805264,
        9.190565
       ],
       [
        79.0411374,
        9.1763303
       ],
       [
        79.0387341,
        9.218355
       ],
       [
        79.0933224,
        9.2315714
       ],
       [
        79.1746899,
        9.2190328
       ]
      ]
     ],
     [
      [
       [
        79.2164468,
        9.2514795
       ],
       [
        79.2414665,
        9.2497852
       ],
       [
        79.2414665,
        9.2388145
       ],
       [
        79.1781234,
        9.2100518
       ],
       [
        79.1711281,
        9.2539363
       ],
       [
        79.1880797,
        9.2564777
       ],
       [
        79.2052458,
        9.2552917
       ],
       [
        79.2164468,
        9.2514795
       ]
      ]
     ]
    ]
   }
  }
 ]
}